STARLINK-37093          
1 68194U 26050AD  26100.50002315 -.01856606  00000+0 -16295-1 0  9993
2 68194  53.1596 122.2913 0001129  63.2975  64.3938 15.71529241  5559
STARLINK-37058          
1 68195U 26050AE  26100.50002315 -.01899819  00000+0 -17432-1 0  9991
2 68195  53.1595 122.2826 0001249  65.3894  66.3024 15.70021668  5555
YAOGAN-50 02            
1 68196U 26051A   26100.56452969  .00000283  00000+0  87561-4 0  9992
2 68196 141.9858   1.0255 0000709 265.4100  94.6539 13.83262182  3628
2026-052A               
1 68198U 26052A   26100.53247970  .00006878  00000+0  42430-3 0  9997
2 68198  97.5353 176.3740 0014124 174.0350 186.1050 15.10159351  3832
YUXING-3 06             
1 68199U 26052B   26100.72879723  .00004866  00000+0  30061-3 0  9998
2 68199  97.5354 176.5724 0013163 174.4501 185.6877 15.10267755  3864
2026-052C               
1 68200U 26052C   26100.52797633  .00004044  00000+0  24985-3 0  9994
2 68200  97.5350 176.3805 0012884 177.3122 182.8179 15.10367972  3823
2026-052D               
1 68201U 26052D   26100.52448385  .00006348  00000+0  38694-3 0  9993
2 68201  97.5348 176.3819 0012120 174.0831 186.0544 15.10650090  3839
2026-052E               
1 68202U 26052E   26100.45823896  .00009824  00000+0  59638-3 0  9993
2 68202  97.5332 176.3143 0012160 179.0946 181.0308 15.10652199  3823
2026-052F               
1 68203U 26052F   26100.52020429  .00006230  00000+0  37727-3 0  9996
2 68203  97.5343 176.3930 0011217 170.6889 189.4551 15.10905693  3838
2026-052G               
1 68204U 26052G   26100.51940587  .00006292  00000+0  38053-3 0  9993
2 68204  97.5353 176.3898 0010735 173.2921 186.8454 15.10952478  3839
2026-052J               
1 68206U 26052J   26100.50059258  .00061162  25408-5  88939-3 0  9990
2 68206  97.3385 174.6293 0534291 290.6631  63.8083 14.70109426  3726
STARLINK-36986          
1 68207U 26053A   26100.50002315 -.01848235  00000+0 -24039-1 0  9995
2 68207  97.2844 336.3551 0001900  81.8747  63.9556 15.61834963  5128
STARLINK-37009          
1 68208U 26053B   26100.50002315 -.01912757  00000+0 -23213-1 0  9990
2 68208  97.2922 336.3665 0002355 105.9802  72.5066 15.63706401  5126
STARLINK-36948          
1 68209U 26053C   26100.50002315 -.01896309  00000+0 -22598-1 0  9990
2 68209  97.2850 336.3704 0002086  94.5883  94.5093 15.64140704  5026
STARLINK-37119          
1 68210U 26053D   26100.50002315 -.01898137  00000+0 -22385-1 0  9997
2 68210  97.2849 336.3738 0002124  96.3566 100.7724 15.64406959  5123
