[{"OBJECT_NAME":"STARLINK-37093","OBJECT_ID":"2026-050AD","EPOCH":"2026-04-10T12:00:02.000160","MEAN_MOTION":15.71529241,"ECCENTRICITY":0.0001129,"INCLINATION":53.1596,"RA_OF_ASC_NODE":122.2913,"ARG_OF_PERICENTER":63.2975,"MEAN_ANOMALY":64.3938,"EPHEMERIS_TYPE":0,"CLASSIFICATION_TYPE":"U","NORAD_CAT_ID":68194,"ELEMENT_SET_NO":999,"REV_AT_EPOCH":555,"BSTAR":-0.016295,"MEAN_MOTION_DOT":-0.01856606,"MEAN_MOTION_DDOT":0},{"OBJECT_NAME":"STARLINK-37058","OBJECT_ID":"2026-050AE","EPOCH":"2026-04-10T12:00:02.000160","MEAN_MOTION":15.70021668,"ECCENTRICITY":0.0001249,"INCLINATION":53.1595,"RA_OF_ASC_NODE":122.2826,"ARG_OF_PERICENTER":65.3894,"MEAN_ANOMALY":66.3024,"EPHEMERIS_TYPE":0,"CLASSIFICATION_TYPE":"U","NORAD_CAT_ID":68195,"ELEMENT_SET_NO":999,"REV_AT_EPOCH":555,"BSTAR":-0.017432,"MEAN_MOTION_DOT":-0.01899819,"MEAN_MOTION_DDOT":0},{"OBJECT_NAME":"YAOGAN-50 02","OBJECT_ID":"2026-051A","EPOCH":"2026-04-10T13:32:55.365216","MEAN_MOTION":13.83262182,"ECCENTRICITY":7.09e-5,"INCLINATION":141.9858,"RA_OF_ASC_NODE":1.0255,"ARG_OF_PERICENTER":265.41,"MEAN_ANOMALY":94.6539,"EPHEMERIS_TYPE":0,"CLASSIFICATION_TYPE":"U","NORAD_CAT_ID":68196,"ELEMENT_SET_NO":999,"REV_AT_EPOCH":362,"BSTAR":8.7561e-5,"MEAN_MOTION_DOT":2.83e-6,"MEAN_MOTION_DDOT":0},{"OBJECT_NAME":"2026-052A","OBJECT_ID":"2026-052A","EPOCH":"2026-04-10T12:46:46.246080","MEAN_MOTION":15.10159351,"ECCENTRICITY":0.0014124,"INCLINATION":97.5353,"RA_OF_ASC_NODE":176.374,"ARG_OF_PERICENTER":174.035,"MEAN_ANOMALY":186.105,"EPHEMERIS_TYPE":0,"CLASSIFICATION_TYPE":"U","NORAD_CAT_ID":68198,"ELEMENT_SET_NO":999,"REV_AT_EPOCH":383,"BSTAR":0.0004243,"MEAN_MOTION_DOT":6.878e-5,"MEAN_MOTION_DDOT":0},{"OBJECT_NAME":"YUXING-3 06","OBJECT_ID":"2026-052B","EPOCH":"2026-04-10T17:29:28.080672","MEAN_MOTION":15.10267755,"ECCENTRICITY":0.0013163,"INCLINATION":97.5354,"RA_OF_ASC_NODE":176.5724,"ARG_OF_PERICENTER":174.4501,"MEAN_ANOMALY":185.6877,"EPHEMERIS_TYPE":0,"CLASSIFICATION_TYPE":"U","NORAD_CAT_ID":68199,"ELEMENT_SET_NO":999,"REV_AT_EPOCH":386,"BSTAR":0.00030061,"MEAN_MOTION_DOT":4.866e-5,"MEAN_MOTION_DDOT":0},{"OBJECT_NAME":"2026-052C","OBJECT_ID":"2026-052C","EPOCH":"2026-04-10T12:40:17.154912","MEAN_MOTION":15.10367972,"ECCENTRICITY":0.0012884,"INCLINATION":97.535,"RA_OF_ASC_NODE":176.3805,"ARG_OF_PERICENTER":177.3122,"MEAN_ANOMALY":182.8179,"EPHEMERIS_TYPE":0,"CLASSIFICATION_TYPE":"U","NORAD_CAT_ID":68200,"ELEMENT_SET_NO":999,"REV_AT_EPOCH":382,"BSTAR":0.00024985,"MEAN_MOTION_DOT":4.044e-5,"MEAN_MOTION_DDOT":0},{"OBJECT_NAME":"2026-052D","OBJECT_ID":"2026-052D","EPOCH":"2026-04-10T12:35:15.404640","MEAN_MOTION":15.1065009,"ECCENTRICITY":0.001212,"INCLINATION":97.5348,"RA_OF_ASC_NODE":176.3819,"ARG_OF_PERICENTER":174.0831,"MEAN_ANOMALY":186.0544,"EPHEMERIS_TYPE":0,"CLASSIFICATION_TYPE":"U","NORAD_CAT_ID":68201,"ELEMENT_SET_NO":999,"REV_AT_EPOCH":383,"BSTAR":0.00038694,"MEAN_MOTION_DOT":6.348e-5,"MEAN_MOTION_DDOT":0},{"OBJECT_NAME":"2026-052E","OBJECT_ID":"2026-052E","EPOCH":"2026-04-10T10:59:51.846144","MEAN_MOTION":15.10652199,"ECCENTRICITY":0.001216,"INCLINATION":97.5332,"RA_OF_ASC_NODE":176.3143,"ARG_OF_PERICENTER":179.0946,"MEAN_ANOMALY":181.0308,"EPHEMERIS_TYPE":0,"CLASSIFICATION_TYPE":"U","NORAD_CAT_ID":68202,"ELEMENT_SET_NO":999,"REV_AT_EPOCH":382,"BSTAR":0.00059638,"MEAN_MOTION_DOT":9.824e-5,"MEAN_MOTION_DDOT":0},{"OBJECT_NAME":"2026-052F","OBJECT_ID":"2026-052F","EPOCH":"2026-04-10T12:29:05.650656","MEAN_MOTION":15.10905693,"ECCENTRICITY":0.0011217,"INCLINATION":97.5343,"RA_OF_ASC_NODE":176.393,"ARG_OF_PERICENTER":170.6889,"MEAN_ANOMALY":189.4551,"EPHEMERIS_TYPE":0,"CLASSIFICATION_TYPE":"U","NORAD_CAT_ID":68203,"ELEMENT_SET_NO":999,"REV_AT_EPOCH":383,"BSTAR":0.00037727,"MEAN_MOTION_DOT":6.23e-5,"MEAN_MOTION_DDOT":0},{"OBJECT_NAME":"2026-052G","OBJECT_ID":"2026-052G","EPOCH":"2026-04-10T12:27:56.667168","MEAN_MOTION":15.10952478,"ECCENTRICITY":0.0010735,"INCLINATION":97.5353,"RA_OF_ASC_NODE":176.3898,"ARG_OF_PERICENTER":173.2921,"MEAN_ANOMALY":186.8454,"EPHEMERIS_TYPE":0,"CLASSIFICATION_TYPE":"U","NORAD_CAT_ID":68204,"ELEMENT_SET_NO":999,"REV_AT_EPOCH":383,"BSTAR":0.00038053,"MEAN_MOTION_DOT":6.292e-5,"MEAN_MOTION_DDOT":0},{"OBJECT_NAME":"2026-052J","OBJECT_ID":"2026-052J","EPOCH":"2026-04-10T12:00:51.198912","MEAN_MOTION":14.70109426,"ECCENTRICITY":0.0534291,"INCLINATION":97.3385,"RA_OF_ASC_NODE":174.6293,"ARG_OF_PERICENTER":290.6631,"MEAN_ANOMALY":63.8083,"EPHEMERIS_TYPE":0,"CLASSIFICATION_TYPE":"U","NORAD_CAT_ID":68206,"ELEMENT_SET_NO":999,"REV_AT_EPOCH":372,"BSTAR":0.00088939,"MEAN_MOTION_DOT":0.00061162,"MEAN_MOTION_DDOT":2.5408e-6},{"OBJECT_NAME":"STARLINK-36986","OBJECT_ID":"2026-053A","EPOCH":"2026-04-10T12:00:02.000160","MEAN_MOTION":15.61834963,"ECCENTRICITY":0.00019,"INCLINATION":97.2844,"RA_OF_ASC_NODE":336.3551,"ARG_OF_PERICENTER":81.8747,"MEAN_ANOMALY":63.9556,"EPHEMERIS_TYPE":0,"CLASSIFICATION_TYPE":"U","NORAD_CAT_ID":68207,"ELEMENT_SET_NO":999,"REV_AT_EPOCH":512,"BSTAR":-0.024039,"MEAN_MOTION_DOT":-0.01848235,"MEAN_MOTION_DDOT":0},{"OBJECT_NAME":"STARLINK-37009","OBJECT_ID":"2026-053B","EPOCH":"2026-04-10T12:00:02.000160","MEAN_MOTION":15.63706401,"ECCENTRICITY":0.0002355,"INCLINATION":97.2922,"RA_OF_ASC_NODE":336.3665,"ARG_OF_PERICENTER":105.9802,"MEAN_ANOMALY":72.5066,"EPHEMERIS_TYPE":0,"CLASSIFICATION_TYPE":"U","NORAD_CAT_ID":68208,"ELEMENT_SET_NO":999,"REV_AT_EPOCH":512,"BSTAR":-0.023213,"MEAN_MOTION_DOT":-0.01912757,"MEAN_MOTION_DDOT":0},{"OBJECT_NAME":"STARLINK-36948","OBJECT_ID":"2026-053C","EPOCH":"2026-04-10T12:00:02.000160","MEAN_MOTION":15.64140704,"ECCENTRICITY":0.0002086,"INCLINATION":97.285,"RA_OF_ASC_NODE":336.3704,"ARG_OF_PERICENTER":94.5883,"MEAN_ANOMALY":94.5093,"EPHEMERIS_TYPE":0,"CLASSIFICATION_TYPE":"U","NORAD_CAT_ID":68209,"ELEMENT_SET_NO":999,"REV_AT_EPOCH":502,"BSTAR":-0.022598,"MEAN_MOTION_DOT":-0.01896309,"MEAN_MOTION_DDOT":0},{"OBJECT_NAME":"STARLINK-37119","OBJECT_ID":"2026-053D","EPOCH":"2026-04-10T12:00:02.000160","MEAN_MOTION":15.64406959,"ECCENTRICITY":0.0002124,"INCLINATION":97.2849,"RA_OF_ASC_NODE":336.3738,"ARG_OF_PERICENTER":96.3566,"MEAN_ANOMALY":100.7724,"EPHEMERIS_TYPE":0,"CLASSIFICATION_TYPE":"U","NORAD_CAT_ID":68210,"ELEMENT_SET_NO":999,"REV_AT_EPOCH":512,"BSTAR":-0.022385,"MEAN_MOTION_DOT":-0.01898137,"MEAN_MOTION_DDOT":0}]
